KUIPER-00008            
1 63724U 25088A   26194.40907232  .00000633  00000+0  11203-3 0  9995
2 63724  51.8994 252.0771 0000563 103.9616 256.1409 14.79933176 66665
KUIPER-00009            
1 63725U 25088B   26194.69356088  .00143989  00000+0  18198-1 0  9994
2 63725  51.9019 268.4465 0000438 128.3835 231.7167 14.80657475 66455
KUIPER-00010            
1 63726U 25088C   26194.65083794  .00000427  00000+0  84941-4 0  9993
2 63726  51.9013 246.1109 0000343  97.5998 262.5003 14.79933609 66387
KUIPER-00011            
1 63727U 25088D   26194.54144985  .00000237  00000+0  60138-4 0  9993
2 63727  51.9000 254.1450 0000471 114.0331 246.0680 14.79924133 66391
KUIPER-00012            
1 63728U 25088E   26194.52385885  .00000481  00000+0  92094-4 0  9995
2 63728  51.9007 239.1570 0000421  92.6857 267.4153 14.79935816 66554
KUIPER-00013            
1 63729U 25088F   26194.52258243  .00000669  00000+0  11678-3 0  9999
2 63729  51.9019 271.6821 0000308 106.8662 253.2335 14.79933261 66203
KUIPER-00014            
1 63730U 25088G   26194.55632376  .00000558  00000+0  10218-3 0  9993
2 63730  51.9015 271.4759 0000500  93.6892 266.4128 14.79930160 66022
KUIPER-00015            
1 63731U 25088H   26194.44425634 -.00001033  00000+0 -10657-3 0  9997
2 63731  51.8998 282.0337 0000412 109.2032 250.8975 14.79930685 66326
KUIPER-00016            
1 63732U 25088J   26194.68870694  .00001332  00000+0  20367-3 0  9993
2 63732  51.9012 273.4032 0000541  88.6857 271.4168 14.79931138 66001
KUIPER-00018            
1 63733U 25088K   26194.66571274  .00000306  00000+0  69183-4 0  9994
2 63733  51.9035 263.5369 0000478  84.8877 275.2140 14.79931811 66144
KUIPER-00019            
1 63734U 25088L   26194.48979308  .00000546  00000+0  10062-3 0  9992
2 63734  51.9008 263.0735 0000500  83.5391 276.5628 14.79930485 66130
KUIPER-00020            
1 63735U 25088M   26194.39286476  .00000534  00000+0  99136-4 0  9997
2 63735  51.9017 267.2463 0000582  81.6584 278.4444 14.79901230 66276
KUIPER-00021            
1 63736U 25088N   26194.49419440 -.00000506  00000+0 -37379-4 0  9990
2 63736  51.8997 266.7530 0000462  59.1536 300.9472 14.79931175 66123
KUIPER-00023            
1 63737U 25088P   26194.45757640 -.00037832  00000+0 -49445-2 0  9991
2 63737  51.9002 269.4036 0000698 211.8497 148.2424 14.80075898 66388
KUIPER-00024            
1 63738U 25088Q   26194.60628409 -.00000852  00000+0 -82818-4 0  9994
2 63738  51.9032 256.3461 0000421 100.4963 259.6047 14.79930867 66702
KUIPER-00025            
1 63739U 25088R   26194.49691522  .00000720  00000+0  12348-3 0  9990
2 63739  51.9028 264.3112 0000349  55.0398 305.0598 14.79930964 66442
